OBJECT_NAME,OBJECT_ID,EPOCH,MEAN_MOTION,ECCENTRICITY,INCLINATION,RA_OF_ASC_NODE,ARG_OF_PERICENTER,MEAN_ANOMALY,EPHEMERIS_TYPE,CLASSIFICATION_TYPE,NORAD_CAT_ID,ELEMENT_SET_NO,REV_AT_EPOCH,BSTAR,MEAN_MOTION_DOT,MEAN_MOTION_DDOT
QZS-3 (MICHIBIKI-3),2017-048A,2026-07-20T20:34:35.700960,1.00269934,.0002778,0.0593,206.7674,279.9036,247.6293,0,U,42917,999,3259,0,-.348E-5,0
AMAZONAS 5,2017-053A,2026-07-20T19:41:00.178080,1.00270529,.0001208,0.0329,323.2651,134.6080,74.9589,0,U,42934,999,3238,0,-.283E-5,0
ASIASAT 9,2017-057A,2026-07-20T06:52:00.417216,1.00275714,.00020459,0.0156,47.3414,64.2903,51.5396,0,U,42942,999,3219,0,-.361E-5,0
INTELSAT 37E (IS-37E),2017-059A,2026-07-20T19:53:14.005248,1.00272334,.0002851,0.0186,65.5236,58.2327,95.1452,0,U,42950,999,3240,0,-.141E-5,0
BSAT-4A,2017-059B,2026-07-20T18:14:38.802048,1.00272687,.0003515,0.0356,346.5643,96.4013,239.0502,0,U,42951,999,3213,0,-.351E-5,0
QZS-4 (MICHIBIKI-4),2017-062A,2026-07-20T17:15:01.461024,1.00289508,.0746992,40.0883,343.0577,268.6754,84.8963,0,U,42965,999,3214,0,-.359E-5,0
SES-11 (ECHOSTAR 105),2017-063A,2026-07-20T16:03:05.420736,1.00271784,.0002876,0.0216,333.2042,133.9221,327.1232,0,U,42967,999,3205,0,-.9E-6,0
KOREASAT 5A,2017-067A,2026-07-20T20:30:36.085248,1.00272862,.0001005,0.0091,352.8484,100.1868,266.3790,0,U,42984,999,3186,0,-.358E-5,0
ALCOMSAT 1,2017-078A,2026-07-20T19:58:38.870976,1.00272520,.0002431,0.0392,264.8097,214.3143,94.3212,0,U,43039,999,3163,0,-.186E-5,0
SBIRS GEO-3 (USA 282),2018-009A,2026-07-20T17:30:15.001056,1.00272462,.0002006,2.2090,13.6645,99.3841,288.6050,0,U,43162,999,3118,0,.127E-5,0
AL YAH 3,2018-012A,2026-07-20T19:52:36.563808,1.00272192,.0003669,1.6365,82.7025,33.5365,100.3946,0,U,43174,999,3118,0,-.157E-5,0
SES-14,2018-012B,2026-07-20T20:14:38.723136,1.00271335,.0001026,0.0128,35.2987,72.7190,86.7442,0,U,43175,999,736,0,-.279E-5,0
GOES 17,2018-022A,2026-07-20T14:24:54.604800,1.00272164,.0000597,1.0209,85.1825,59.4321,280.4838,0,U,43226,999,3075,0,-.184E-5,0
HISPASAT 30W-6,2018-023A,2026-07-20T19:58:38.870976,1.00270186,.0005266,0.0433,52.6465,42.7929,112.8286,0,U,43228,999,3074,0,-.217E-5,0
SUPERBIRD-B3,2018-033A,2026-07-20T19:01:56.424288,1.00272056,.0001434,0.0367,245.1468,252.6037,248.2982,0,U,43271,999,3039,0,-.93E-6,0
HYLAS 4,2018-033B,2026-07-20T16:23:18.481920,1.00271617,.000092,0.0425,247.9188,228.1081,34.7583,0,U,43272,999,3040,0,-.234E-5,0
IRNSS-1I,2018-035A,2026-07-19T17:41:38.584032,1.00273777,.00183655,28.8289,73.6878,178.9692,5.3277,0,U,43286,999,3040,0,.63E-6,0
USA 283,2018-036A,2026-07-19T12:06:14.262336,1.00271912,.0000802,0.0121,113.1212,85.3615,54.4575,0,U,43339,999,2561,0,-.322E-5,0
COSMOS 2526,2018-037A,2026-07-20T00:01:48.982368,1.00275110,.00005743,0.0287,96.0594,109.7113,220.5338,0,U,43432,999,3028,0,-.347E-5,0
APSTAR-6C,2018-041A,2026-07-19T16:27:15.628320,1.00269212,.0000533,0.0842,293.1098,294.7366,90.4374,0,U,43450,999,3013,0,-.322E-5,0
BANGABANDHUSAT-1,2018-044A,2026-07-20T15:24:24.130080,1.00272169,.0001957,0.0361,96.9206,23.2876,168.4072,0,U,43463,999,3004,0,-.363E-5,0
SES-12,2018-049A,2026-07-20T18:42:50.755104,1.00272200,.0000638,0.0101,11.8016,242.3086,60.1498,0,U,43488,999,2975,0,-.27E-5,0
FENGYUN 2H,2018-050A,2026-07-20T20:20:52.018656,1.00267064,.0002089,3.1162,78.6829,129.0421,115.1487,0,U,43491,999,2977,0,-.128E-5,0
BEIDOU-2 IGSO-7,2018-057A,2026-07-16T19:52:42.225600,1.00242392,.01049148,55.1987,162.7987,237.9691,299.1450,0,U,43539,999,2942,0,-.84E-6,0
TELSTAR 19V,2018-059A,2026-07-20T19:40:22.738368,1.00270792,.0003081,0.0301,166.5285,322.6728,41.4728,0,U,43562,999,2948,0,-.28E-5,0
TELKOM 4 (MERAH PUTIH),2018-064A,2026-07-20T20:29:06.229248,1.00271902,.0001242,0.0188,72.8144,45.9469,235.1299,0,U,43587,999,2921,0,-.344E-5,0
TELSTAR 18V,2018-069A,2026-07-20T20:37:42.902112,1.00271411,.0001923,0.0359,240.6830,236.0901,269.2905,0,U,43611,999,2897,0,-.294E-5,0
AZERSPACE 2 (IS-38),2018-074A,2026-07-20T20:11:13.085088,1.00272210,.0001531,0.0162,53.8449,57.1460,175.5281,0,U,43632,999,2878,0,.136E-5,0
HORIZONS-3E,2018-074B,2026-07-20T13:29:38.876928,1.00271973,.0000569,0.0423,238.4699,58.8170,12.4432,0,U,43633,999,2867,0,-.32E-6,0
AEHF-4 (USA 288),2018-079A,2026-07-20T19:39:07.858080,1.00273818,.0059841,1.4353,5.2466,355.2654,165.3478,0,U,43651,999,2863,0,-.276E-5,0
BEIDOU-3 G1,2018-085A,2026-07-20T19:01:18.983712,1.00272695,.0008191,2.9519,96.4662,356.9288,290.4800,0,U,43683,999,2839,0,-.111E-5,0
